[{"OBJECT_NAME":"SUPERVIEW-1 03","OBJECT_ID":"2018-002A","EPOCH":"2026-03-09T22:14:33.880992","MEAN_MOTION":15.35916978,"ECCENTRICITY":0.00509393,"INCLINATION":97.3162,"RA_OF_ASC_NODE":154.1458,"ARG_OF_PERICENTER":177.0269,"MEAN_ANOMALY":183.1288,"EPHEMERIS_TYPE":0,"CLASSIFICATION_TYPE":"U","NORAD_CAT_ID":43099,"ELEMENT_SET_NO":999,"REV_AT_EPOCH":45311,"BSTAR":0.00062641306,"MEAN_MOTION_DOT":0.00022818,"MEAN_MOTION_DDOT":0},{"OBJECT_NAME":"STARLINK-31660","OBJECT_ID":"2024-082M","EPOCH":"2026-03-09T10:49:20.694144","MEAN_MOTION":15.27573152,"ECCENTRICITY":0.0002132,"INCLINATION":43.0042,"RA_OF_ASC_NODE":100.789,"ARG_OF_PERICENTER":327.0181,"MEAN_ANOMALY":33.0537,"EPHEMERIS_TYPE":0,"CLASSIFICATION_TYPE":"U","NORAD_CAT_ID":59642,"ELEMENT_SET_NO":999,"REV_AT_EPOCH":10543,"BSTAR":-2.19301e-7,"MEAN_MOTION_DOT":-2.69e-6,"MEAN_MOTION_DDOT":0}]
